[{"OBJECT_NAME":"STARLINK-4174","OBJECT_ID":"2022-086AL","EPOCH":"2026-03-09T15:11:54.355200","MEAN_MOTION":15.0883724,"ECCENTRICITY":0.0001341,"INCLINATION":53.2176,"RA_OF_ASC_NODE":184.3753,"ARG_OF_PERICENTER":75.0137,"MEAN_ANOMALY":285.1004,"EPHEMERIS_TYPE":0,"CLASSIFICATION_TYPE":"U","NORAD_CAT_ID":53276,"ELEMENT_SET_NO":999,"REV_AT_EPOCH":20118,"BSTAR":5.0853e-5,"MEAN_MOTION_DOT":5.21e-6,"MEAN_MOTION_DDOT":0},{"OBJECT_NAME":"COSMOS 2084","OBJECT_ID":"1990-055A","EPOCH":"2026-03-09T23:42:10.320480","MEAN_MOTION":15.05654003,"ECCENTRICITY":0.00170188,"INCLINATION":62.7921,"RA_OF_ASC_NODE":334.5624,"ARG_OF_PERICENTER":190.1371,"MEAN_ANOMALY":169.9389,"EPHEMERIS_TYPE":0,"CLASSIFICATION_TYPE":"U","NORAD_CAT_ID":20663,"ELEMENT_SET_NO":999,"REV_AT_EPOCH":93636,"BSTAR":0.00023056361,"MEAN_MOTION_DOT":3.154e-5,"MEAN_MOTION_DDOT":0}]
